ONEWEB-0620             
1 55161U 23004X   24338.81473220  .00000345  00000+0  93633-3 0  9992
2 55161  87.8885 132.7551 0001436 115.6127 244.5150 13.11416176 92389
ONEWEB-0621             
1 55162U 23004Y   24338.84184999 -.00000460  00000+0 -13335-2 0  9998
2 55162  87.8882 132.7136 0001749  93.8281 266.3047 13.11413596 92369
ONEWEB-0622             
1 55163U 23004Z   24338.84693470 -.00000715  00000+0 -20541-2 0  9998
2 55163  87.8883 132.7311 0001931 120.2521 239.8798 13.11415672 92355
ONEWEB-0623             
1 55164U 23004AA  24338.83704312 -.00000444  00000+0 -11780-2 0  9990
2 55164  87.9081 117.5224 0002158 112.9932 247.1427 13.17648874 93795
ONEWEB-0624             
1 55165U 23004AB  24338.85163108 -.00000199  00000+0 -58756-3 0  9997
2 55165  87.8883 102.2361 0001695 104.0980 256.0337 13.12444453 94554
ONEWEB-0625             
1 55166U 23004AC  24338.82691251  .00000094  00000+0  20953-3 0  9990
2 55166  87.9090 117.5231 0001521  90.6347 269.4958 13.17647523 93785
ONEWEB-0626             
1 55167U 23004AD  24338.81678195  .00000038  00000+0  64638-4 0  9999
2 55167  87.9088 117.5244 0001137 111.8028 248.3224 13.17651288 93787
ONEWEB-0627             
1 55168U 23004AE  24338.80497269  .00000032  00000+0  49878-4 0  9993
2 55168  87.9088 117.5285 0002022 113.4195 246.7149 13.17651473 93784
